[{"OBJECT_NAME":"STARLINK-36884","OBJECT_ID":"2026-040M","EPOCH":"2026-03-18T14:00:01.000224","MEAN_MOTION":15.81586802,"ECCENTRICITY":0.00011225,"INCLINATION":97.2725,"RA_OF_ASC_NODE":26.4675,"ARG_OF_PERICENTER":90.7292,"MEAN_ANOMALY":329.2292,"EPHEMERIS_TYPE":0,"CLASSIFICATION_TYPE":"U","NORAD_CAT_ID":68026,"ELEMENT_SET_NO":999,"REV_AT_EPOCH":385,"BSTAR":-0.0057050548,"MEAN_MOTION_DOT":-0.01009157,"MEAN_MOTION_DDOT":0},{"OBJECT_NAME":"STARLINK-36940","OBJECT_ID":"2026-040N","EPOCH":"2026-03-18T14:00:01.000224","MEAN_MOTION":15.80833687,"ECCENTRICITY":0.00013757,"INCLINATION":97.2825,"RA_OF_ASC_NODE":26.4972,"ARG_OF_PERICENTER":99.0881,"MEAN_ANOMALY":16.8591,"EPHEMERIS_TYPE":0,"CLASSIFICATION_TYPE":"U","NORAD_CAT_ID":68027,"ELEMENT_SET_NO":999,"REV_AT_EPOCH":395,"BSTAR":-0.00022086472,"MEAN_MOTION_DOT":-0.00042278,"MEAN_MOTION_DDOT":0},{"OBJECT_NAME":"STARLINK-36253","OBJECT_ID":"2026-040P","EPOCH":"2026-03-18T14:00:01.000224","MEAN_MOTION":15.75125993,"ECCENTRICITY":0.00018547,"INCLINATION":97.2857,"RA_OF_ASC_NODE":26.2504,"ARG_OF_PERICENTER":104.4672,"MEAN_ANOMALY":161.1814,"EPHEMERIS_TYPE":0,"CLASSIFICATION_TYPE":"U","NORAD_CAT_ID":68028,"ELEMENT_SET_NO":999,"REV_AT_EPOCH":395,"BSTAR":-0.014945425,"MEAN_MOTION_DOT":-0.01932147,"MEAN_MOTION_DDOT":0},{"OBJECT_NAME":"STARLINK-36944","OBJECT_ID":"2026-040Q","EPOCH":"2026-03-18T14:00:01.000224","MEAN_MOTION":15.81520367,"ECCENTRICITY":0.00011602,"INCLINATION":97.272,"RA_OF_ASC_NODE":26.47,"ARG_OF_PERICENTER":92.4009,"MEAN_ANOMALY":336.1585,"EPHEMERIS_TYPE":0,"CLASSIFICATION_TYPE":"U","NORAD_CAT_ID":68029,"ELEMENT_SET_NO":999,"REV_AT_EPOCH":385,"BSTAR":-0.0053762319,"MEAN_MOTION_DOT":-0.00954286,"MEAN_MOTION_DDOT":0},{"OBJECT_NAME":"STARLINK-36942","OBJECT_ID":"2026-040R","EPOCH":"2026-03-18T14:00:01.000224","MEAN_MOTION":15.81457798,"ECCENTRICITY":0.00011619,"INCLINATION":97.2737,"RA_OF_ASC_NODE":26.474,"ARG_OF_PERICENTER":89.3795,"MEAN_ANOMALY":343.5006,"EPHEMERIS_TYPE":0,"CLASSIFICATION_TYPE":"U","NORAD_CAT_ID":68030,"ELEMENT_SET_NO":999,"REV_AT_EPOCH":385,"BSTAR":-0.0050156406,"MEAN_MOTION_DOT":-0.0089401,"MEAN_MOTION_DDOT":0},{"OBJECT_NAME":"STARLINK-36913","OBJECT_ID":"2026-040S","EPOCH":"2026-03-18T14:00:01.000224","MEAN_MOTION":15.81372943,"ECCENTRICITY":0.00014602,"INCLINATION":97.2741,"RA_OF_ASC_NODE":26.4766,"ARG_OF_PERICENTER":80.5968,"MEAN_ANOMALY":356.6055,"EPHEMERIS_TYPE":0,"CLASSIFICATION_TYPE":"U","NORAD_CAT_ID":68031,"ELEMENT_SET_NO":999,"REV_AT_EPOCH":385,"BSTAR":-0.0044288833,"MEAN_MOTION_DOT":-0.00795457,"MEAN_MOTION_DDOT":0},{"OBJECT_NAME":"STARLINK-36935","OBJECT_ID":"2026-040T","EPOCH":"2026-03-18T14:00:01.000224","MEAN_MOTION":15.80875232,"ECCENTRICITY":0.0001851,"INCLINATION":97.2768,"RA_OF_ASC_NODE":26.4909,"ARG_OF_PERICENTER":81.7336,"MEAN_ANOMALY":25.6546,"EPHEMERIS_TYPE":0,"CLASSIFICATION_TYPE":"U","NORAD_CAT_ID":68032,"ELEMENT_SET_NO":999,"REV_AT_EPOCH":395,"BSTAR":-0.00091320423,"MEAN_MOTION_DOT":-0.00172144,"MEAN_MOTION_DDOT":0},{"OBJECT_NAME":"STARLINK-36947","OBJECT_ID":"2026-040U","EPOCH":"2026-03-18T14:00:01.000224","MEAN_MOTION":15.81381092,"ECCENTRICITY":0.000136,"INCLINATION":97.2746,"RA_OF_ASC_NODE":26.4786,"ARG_OF_PERICENTER":67.3711,"MEAN_ANOMALY":14.0987,"EPHEMERIS_TYPE":0,"CLASSIFICATION_TYPE":"U","NORAD_CAT_ID":68033,"ELEMENT_SET_NO":999,"REV_AT_EPOCH":385,"BSTAR":-0.0044981897,"MEAN_MOTION_DOT":-0.00807095,"MEAN_MOTION_DDOT":0},{"OBJECT_NAME":"STARLINK-36939","OBJECT_ID":"2026-040V","EPOCH":"2026-03-18T14:00:01.000224","MEAN_MOTION":15.81161518,"ECCENTRICITY":0.00016589,"INCLINATION":97.2768,"RA_OF_ASC_NODE":26.4878,"ARG_OF_PERICENTER":106.8482,"MEAN_ANOMALY":351.852,"EPHEMERIS_TYPE":0,"CLASSIFICATION_TYPE":"U","NORAD_CAT_ID":68034,"ELEMENT_SET_NO":999,"REV_AT_EPOCH":385,"BSTAR":-0.0028908671,"MEAN_MOTION_DOT":-0.00529986,"MEAN_MOTION_DDOT":0},{"OBJECT_NAME":"STARLINK-36943","OBJECT_ID":"2026-040W","EPOCH":"2026-03-18T14:00:01.000224","MEAN_MOTION":15.80900368,"ECCENTRICITY":8.274e-5,"INCLINATION":97.2807,"RA_OF_ASC_NODE":26.4958,"ARG_OF_PERICENTER":114.1945,"MEAN_ANOMALY":357.4784,"EPHEMERIS_TYPE":0,"CLASSIFICATION_TYPE":"U","NORAD_CAT_ID":68035,"ELEMENT_SET_NO":999,"REV_AT_EPOCH":390,"BSTAR":-0.001103108,"MEAN_MOTION_DOT":-0.00207288,"MEAN_MOTION_DDOT":0},{"OBJECT_NAME":"STARLINK-36906","OBJECT_ID":"2026-040X","EPOCH":"2026-03-18T14:00:01.000224","MEAN_MOTION":15.81185091,"ECCENTRICITY":0.00015764,"INCLINATION":97.2758,"RA_OF_ASC_NODE":26.4849,"ARG_OF_PERICENTER":91.9558,"MEAN_ANOMALY":2.4565,"EPHEMERIS_TYPE":0,"CLASSIFICATION_TYPE":"U","NORAD_CAT_ID":68036,"ELEMENT_SET_NO":999,"REV_AT_EPOCH":385,"BSTAR":-0.0031024788,"MEAN_MOTION_DOT":-0.00567002,"MEAN_MOTION_DDOT":0},{"OBJECT_NAME":"STARLINK-36388","OBJECT_ID":"2026-040Y","EPOCH":"2026-03-18T14:00:01.000224","MEAN_MOTION":15.80989411,"ECCENTRICITY":0.00012731,"INCLINATION":97.2772,"RA_OF_ASC_NODE":26.4901,"ARG_OF_PERICENTER":87.4968,"MEAN_ANOMALY":15.5719,"EPHEMERIS_TYPE":0,"CLASSIFICATION_TYPE":"U","NORAD_CAT_ID":68037,"ELEMENT_SET_NO":999,"REV_AT_EPOCH":380,"BSTAR":-0.0015816395,"MEAN_MOTION_DOT":-0.00295423,"MEAN_MOTION_DDOT":0},{"OBJECT_NAME":"STARLINK-36895","OBJECT_ID":"2026-040Z","EPOCH":"2026-03-18T14:00:01.000224","MEAN_MOTION":15.8126049,"ECCENTRICITY":0.00012204,"INCLINATION":97.2743,"RA_OF_ASC_NODE":26.4814,"ARG_OF_PERICENTER":89.3226,"MEAN_ANOMALY":0.772,"EPHEMERIS_TYPE":0,"CLASSIFICATION_TYPE":"U","NORAD_CAT_ID":68038,"ELEMENT_SET_NO":999,"REV_AT_EPOCH":385,"BSTAR":-0.003567486,"MEAN_MOTION_DOT":-0.00648182,"MEAN_MOTION_DDOT":0},{"OBJECT_NAME":"STARLINK-36373","OBJECT_ID":"2026-040AA","EPOCH":"2026-03-18T14:00:01.000224","MEAN_MOTION":15.81383872,"ECCENTRICITY":0.0001332,"INCLINATION":97.2741,"RA_OF_ASC_NODE":26.48,"ARG_OF_PERICENTER":71.0101,"MEAN_ANOMALY":14.7323,"EPHEMERIS_TYPE":0,"CLASSIFICATION_TYPE":"U","NORAD_CAT_ID":68039,"ELEMENT_SET_NO":999,"REV_AT_EPOCH":380,"BSTAR":-0.004535393,"MEAN_MOTION_DOT":-0.00813285,"MEAN_MOTION_DDOT":0},{"OBJECT_NAME":"STARLINK-36711","OBJECT_ID":"2026-041A","EPOCH":"2026-03-18T14:00:01.000224","MEAN_MOTION":15.75249612,"ECCENTRICITY":0.00012118,"INCLINATION":53.1594,"RA_OF_ASC_NODE":17.7289,"ARG_OF_PERICENTER":86.8245,"MEAN_ANOMALY":242.5256,"EPHEMERIS_TYPE":0,"CLASSIFICATION_TYPE":"U","NORAD_CAT_ID":68040,"ELEMENT_SET_NO":999,"REV_AT_EPOCH":380,"BSTAR":-0.00043616472,"MEAN_MOTION_DOT":-0.00067002,"MEAN_MOTION_DDOT":0},{"OBJECT_NAME":"STARLINK-36825","OBJECT_ID":"2026-041B","EPOCH":"2026-03-18T10:44:04.946208","MEAN_MOTION":15.80944262,"ECCENTRICITY":0.00018316,"INCLINATION":53.1594,"RA_OF_ASC_NODE":18.2342,"ARG_OF_PERICENTER":61.6339,"MEAN_ANOMALY":298.4869,"EPHEMERIS_TYPE":0,"CLASSIFICATION_TYPE":"U","NORAD_CAT_ID":68041,"ELEMENT_SET_NO":999,"REV_AT_EPOCH":260,"BSTAR":0.0009768047,"MEAN_MOTION_DOT":0.00197206,"MEAN_MOTION_DDOT":0}]
