STARLINK-36884          
1 68026U 26040M   26077.58334491 -.01009157  00000+0 -57051-2 0  9997
2 68026  97.2725  26.4675 0001122  90.7292 329.2292 15.81586802  3850
STARLINK-36940          
1 68027U 26040N   26077.58334491 -.00042278  00000+0 -22086-3 0  9999
2 68027  97.2825  26.4972 0001375  99.0881  16.8591 15.80833687  3955
STARLINK-36253          
1 68028U 26040P   26077.58334491 -.01932147  00000+0 -14945-1 0  9997
2 68028  97.2857  26.2504 0001854 104.4672 161.1814 15.75125993  3951
STARLINK-36944          
1 68029U 26040Q   26077.58334491 -.00954286  00000+0 -53762-2 0  9996
2 68029  97.2720  26.4700 0001160  92.4009 336.1585 15.81520367  3850
STARLINK-36942          
1 68030U 26040R   26077.58334491 -.00894010  00000+0 -50156-2 0  9990
2 68030  97.2737  26.4740 0001161  89.3795 343.5006 15.81457798  3859
STARLINK-36913          
1 68031U 26040S   26077.58334491 -.00795457  00000+0 -44289-2 0  9996
2 68031  97.2741  26.4766 0001460  80.5968 356.6055 15.81372943  3857
STARLINK-36935          
1 68032U 26040T   26077.58334491 -.00172144  00000+0 -91320-3 0  9998
2 68032  97.2768  26.4909 0001851  81.7336  25.6546 15.80875232  3959
STARLINK-36947          
1 68033U 26040U   26077.58334491 -.00807095  00000+0 -44982-2 0  9990
2 68033  97.2746  26.4786 0001360  67.3711  14.0987 15.81381092  3858
STARLINK-36939          
1 68034U 26040V   26077.58334491 -.00529986  00000+0 -28909-2 0  9992
2 68034  97.2768  26.4878 0001658 106.8482 351.8520 15.81161518  3853
STARLINK-36943          
1 68035U 26040W   26077.58334491 -.00207288  00000+0 -11031-2 0  9999
2 68035  97.2807  26.4958 0000827 114.1945 357.4784 15.80900368  3903
STARLINK-36906          
1 68036U 26040X   26077.58334491 -.00567002  00000+0 -31025-2 0  9998
2 68036  97.2758  26.4849 0001576  91.9558   2.4565 15.81185091  3859
STARLINK-36388          
1 68037U 26040Y   26077.58334491 -.00295423  00000+0 -15816-2 0  9994
2 68037  97.2772  26.4901 0001273  87.4968  15.5719 15.80989411  3802
STARLINK-36895          
1 68038U 26040Z   26077.58334491 -.00648182  00000+0 -35675-2 0  9994
2 68038  97.2743  26.4814 0001220  89.3226   0.7720 15.81260490  3857
STARLINK-36373          
1 68039U 26040AA  26077.58334491 -.00813285  00000+0 -45354-2 0  9998
2 68039  97.2741  26.4800 0001332  71.0101  14.7323 15.81383872  3804
STARLINK-36711          
1 68040U 26041A   26077.58334491 -.00067002  00000+0 -43616-3 0  9999
2 68040  53.1594  17.7289 0001211  86.8245 242.5256 15.75249612  3808
STARLINK-36825          
1 68041U 26041B   26077.44727947  .00197206  00000+0  97680-3 0  9995
2 68041  53.1594  18.2342 0001831  61.6339 298.4869 15.80944262  2604
